[{"OBJECT_NAME":"HELIOS 1B","OBJECT_ID":"1999-064A","EPOCH":"2026-03-28T06:38:39.535872","MEAN_MOTION":14.87768362,"ECCENTRICITY":0.00018625,"INCLINATION":98.1674,"RA_OF_ASC_NODE":350.0647,"ARG_OF_PERICENTER":49.4094,"MEAN_ANOMALY":310.7283,"EPHEMERIS_TYPE":0,"CLASSIFICATION_TYPE":"U","NORAD_CAT_ID":25977,"ELEMENT_SET_NO":999,"REV_AT_EPOCH":68802,"BSTAR":0.00020269615,"MEAN_MOTION_DOT":1.791e-5,"MEAN_MOTION_DDOT":0},{"OBJECT_NAME":"TERRA","OBJECT_ID":"1999-068A","EPOCH":"2026-03-28T04:51:52.484256","MEAN_MOTION":14.61033917,"ECCENTRICITY":0.00035551,"INCLINATION":97.9554,"RA_OF_ASC_NODE":139.9267,"ARG_OF_PERICENTER":112.9145,"MEAN_ANOMALY":288.3211,"EPHEMERIS_TYPE":0,"CLASSIFICATION_TYPE":"U","NORAD_CAT_ID":25994,"ELEMENT_SET_NO":999,"REV_AT_EPOCH":39778,"BSTAR":0.00010210506,"MEAN_MOTION_DOT":4.57e-6,"MEAN_MOTION_DDOT":0},{"OBJECT_NAME":"SL-16 R/B","OBJECT_ID":"2000-006B","EPOCH":"2026-03-28T05:46:21.816192","MEAN_MOTION":14.15826807,"ECCENTRICITY":0.00157663,"INCLINATION":71.0019,"RA_OF_ASC_NODE":58.8273,"ARG_OF_PERICENTER":160.7922,"MEAN_ANOMALY":199.3799,"EPHEMERIS_TYPE":0,"CLASSIFICATION_TYPE":"U","NORAD_CAT_ID":26070,"ELEMENT_SET_NO":999,"REV_AT_EPOCH":35118,"BSTAR":0.00019111043,"MEAN_MOTION_DOT":3.29e-6,"MEAN_MOTION_DDOT":0},{"OBJECT_NAME":"TITAN 4B R/B","OBJECT_ID":"2000-047B","EPOCH":"2026-03-28T05:56:40.270848","MEAN_MOTION":15.09731918,"ECCENTRICITY":0.00398383,"INCLINATION":67.9913,"RA_OF_ASC_NODE":348.3211,"ARG_OF_PERICENTER":13.6623,"MEAN_ANOMALY":346.5594,"EPHEMERIS_TYPE":0,"CLASSIFICATION_TYPE":"U","NORAD_CAT_ID":26474,"ELEMENT_SET_NO":999,"REV_AT_EPOCH":39571,"BSTAR":0.0002588917,"MEAN_MOTION_DOT":4.128e-5,"MEAN_MOTION_DDOT":0},{"OBJECT_NAME":"ENVISAT","OBJECT_ID":"2002-009A","EPOCH":"2026-03-28T02:20:24.914976","MEAN_MOTION":14.39043164,"ECCENTRICITY":0.00012163,"INCLINATION":98.3757,"RA_OF_ASC_NODE":40.2599,"ARG_OF_PERICENTER":81.6315,"MEAN_ANOMALY":288.9647,"EPHEMERIS_TYPE":0,"CLASSIFICATION_TYPE":"U","NORAD_CAT_ID":27386,"ELEMENT_SET_NO":999,"REV_AT_EPOCH":26182,"BSTAR":5.2880771e-5,"MEAN_MOTION_DOT":1.2e-6,"MEAN_MOTION_DDOT":0},{"OBJECT_NAME":"IDEFIX & ARIANE 42P R/B","OBJECT_ID":"2002-021B","EPOCH":"2026-03-28T05:37:26.233824","MEAN_MOTION":14.31038432,"ECCENTRICITY":0.00125694,"INCLINATION":98.5892,"RA_OF_ASC_NODE":25.6213,"ARG_OF_PERICENTER":129.1553,"MEAN_ANOMALY":231.0749,"EPHEMERIS_TYPE":0,"CLASSIFICATION_TYPE":"U","NORAD_CAT_ID":27422,"ELEMENT_SET_NO":999,"REV_AT_EPOCH":24667,"BSTAR":0.00012781846,"MEAN_MOTION_DOT":2.93e-6,"MEAN_MOTION_DDOT":0},{"OBJECT_NAME":"AQUA","OBJECT_ID":"2002-022A","EPOCH":"2026-03-28T05:47:59.047296","MEAN_MOTION":14.62018379,"ECCENTRICITY":0.00011053,"INCLINATION":98.4205,"RA_OF_ASC_NODE":54.9489,"ARG_OF_PERICENTER":117.99,"MEAN_ANOMALY":355.0392,"EPHEMERIS_TYPE":0,"CLASSIFICATION_TYPE":"U","NORAD_CAT_ID":27424,"ELEMENT_SET_NO":999,"REV_AT_EPOCH":27144,"BSTAR":0.00022045041,"MEAN_MOTION_DOT":1.056e-5,"MEAN_MOTION_DDOT":0},{"OBJECT_NAME":"CZ-4B R/B","OBJECT_ID":"2002-024C","EPOCH":"2026-03-28T04:22:07.781664","MEAN_MOTION":14.14550891,"ECCENTRICITY":0.00495372,"INCLINATION":98.8799,"RA_OF_ASC_NODE":140.4924,"ARG_OF_PERICENTER":331.5731,"MEAN_ANOMALY":97.9304,"EPHEMERIS_TYPE":0,"CLASSIFICATION_TYPE":"U","NORAD_CAT_ID":27432,"ELEMENT_SET_NO":999,"REV_AT_EPOCH":23185,"BSTAR":4.3967707e-5,"MEAN_MOTION_DOT":4.1e-7,"MEAN_MOTION_DDOT":0},{"OBJECT_NAME":"MIDORI II (ADEOS-II)","OBJECT_ID":"2002-056A","EPOCH":"2026-03-27T20:45:22.573440","MEAN_MOTION":14.29298391,"ECCENTRICITY":7.95e-5,"INCLINATION":98.7799,"RA_OF_ASC_NODE":45.4716,"ARG_OF_PERICENTER":21.2151,"MEAN_ANOMALY":338.9063,"EPHEMERIS_TYPE":0,"CLASSIFICATION_TYPE":"U","NORAD_CAT_ID":27597,"ELEMENT_SET_NO":999,"REV_AT_EPOCH":21289,"BSTAR":0.0001411,"MEAN_MOTION_DOT":3.14e-6,"MEAN_MOTION_DDOT":0},{"OBJECT_NAME":"H-2A R/B","OBJECT_ID":"2002-056E","EPOCH":"2026-03-28T02:54:44.263296","MEAN_MOTION":14.33772617,"ECCENTRICITY":0.00713465,"INCLINATION":98.3233,"RA_OF_ASC_NODE":46.7887,"ARG_OF_PERICENTER":106.3607,"MEAN_ANOMALY":264.9494,"EPHEMERIS_TYPE":0,"CLASSIFICATION_TYPE":"U","NORAD_CAT_ID":27601,"ELEMENT_SET_NO":999,"REV_AT_EPOCH":21675,"BSTAR":0.00011728618,"MEAN_MOTION_DOT":2.94e-6,"MEAN_MOTION_DDOT":0},{"OBJECT_NAME":"CZ-4B R/B","OBJECT_ID":"2003-049C","EPOCH":"2026-03-28T05:25:12.053280","MEAN_MOTION":14.5503647,"ECCENTRICITY":0.00482433,"INCLINATION":98.6893,"RA_OF_ASC_NODE":82.8603,"ARG_OF_PERICENTER":173.7812,"MEAN_ANOMALY":186.3993,"EPHEMERIS_TYPE":0,"CLASSIFICATION_TYPE":"U","NORAD_CAT_ID":28059,"ELEMENT_SET_NO":999,"REV_AT_EPOCH":18929,"BSTAR":9.9100554e-5,"MEAN_MOTION_DOT":3.82e-6,"MEAN_MOTION_DDOT":0},{"OBJECT_NAME":"CZ-2C R/B","OBJECT_ID":"2004-012C","EPOCH":"2026-03-28T03:27:59.050080","MEAN_MOTION":15.66741264,"ECCENTRICITY":0.00132932,"INCLINATION":97.7185,"RA_OF_ASC_NODE":154.2126,"ARG_OF_PERICENTER":235.478,"MEAN_ANOMALY":124.5225,"EPHEMERIS_TYPE":0,"CLASSIFICATION_TYPE":"U","NORAD_CAT_ID":28222,"ELEMENT_SET_NO":999,"REV_AT_EPOCH":20716,"BSTAR":0.00060221314,"MEAN_MOTION_DOT":0.0006383,"MEAN_MOTION_DDOT":0},{"OBJECT_NAME":"SL-16 R/B","OBJECT_ID":"2004-021B","EPOCH":"2026-03-28T06:23:53.245536","MEAN_MOTION":14.14594634,"ECCENTRICITY":0.00049408,"INCLINATION":71.0007,"RA_OF_ASC_NODE":193.5079,"ARG_OF_PERICENTER":347.1173,"MEAN_ANOMALY":12.9822,"EPHEMERIS_TYPE":0,"CLASSIFICATION_TYPE":"U","NORAD_CAT_ID":28353,"ELEMENT_SET_NO":999,"REV_AT_EPOCH":12546,"BSTAR":0.00011344053,"MEAN_MOTION_DOT":1.7e-6,"MEAN_MOTION_DDOT":0},{"OBJECT_NAME":"CZ-4B R/B","OBJECT_ID":"2004-035C","EPOCH":"2026-03-28T02:24:06.861024","MEAN_MOTION":15.29375596,"ECCENTRICITY":0.0030005,"INCLINATION":97.3475,"RA_OF_ASC_NODE":121.1233,"ARG_OF_PERICENTER":262.653,"MEAN_ANOMALY":97.13,"EPHEMERIS_TYPE":0,"CLASSIFICATION_TYPE":"U","NORAD_CAT_ID":28415,"ELEMENT_SET_NO":999,"REV_AT_EPOCH":18272,"BSTAR":0.00029288,"MEAN_MOTION_DOT":8.38e-5,"MEAN_MOTION_DDOT":0},{"OBJECT_NAME":"CZ-2C R/B","OBJECT_ID":"2004-046B","EPOCH":"2026-03-28T06:39:17.740224","MEAN_MOTION":14.26998576,"ECCENTRICITY":0.01405922,"INCLINATION":98.1977,"RA_OF_ASC_NODE":1.1032,"ARG_OF_PERICENTER":99.8233,"MEAN_ANOMALY":261.8856,"EPHEMERIS_TYPE":0,"CLASSIFICATION_TYPE":"U","NORAD_CAT_ID":28480,"ELEMENT_SET_NO":999,"REV_AT_EPOCH":11115,"BSTAR":6.6262586e-5,"MEAN_MOTION_DOT":1.39e-6,"MEAN_MOTION_DDOT":0},{"OBJECT_NAME":"ARIANE 5 R/B","OBJECT_ID":"2004-049H","EPOCH":"2026-03-27T22:57:34.327584","MEAN_MOTION":14.85297732,"ECCENTRICITY":0.00829337,"INCLINATION":98.2655,"RA_OF_ASC_NODE":256.1011,"ARG_OF_PERICENTER":292.202,"MEAN_ANOMALY":67.041,"EPHEMERIS_TYPE":0,"CLASSIFICATION_TYPE":"U","NORAD_CAT_ID":28499,"ELEMENT_SET_NO":999,"REV_AT_EPOCH":14850,"BSTAR":9.4695927e-5,"MEAN_MOTION_DOT":7.99e-6,"MEAN_MOTION_DDOT":0},{"OBJECT_NAME":"CZ-2D R/B","OBJECT_ID":"2005-024B","EPOCH":"2026-03-27T23:30:12.968928","MEAN_MOTION":15.61793684,"ECCENTRICITY":0.00025958,"INCLINATION":97.3587,"RA_OF_ASC_NODE":102.8182,"ARG_OF_PERICENTER":342.7816,"MEAN_ANOMALY":17.3353,"EPHEMERIS_TYPE":0,"CLASSIFICATION_TYPE":"U","NORAD_CAT_ID":28738,"ELEMENT_SET_NO":999,"REV_AT_EPOCH":14263,"BSTAR":0.00052171305,"MEAN_MOTION_DOT":0.00045198,"MEAN_MOTION_DDOT":0}]
